NORAD_CAT_ID,OBJECT_NAME,OBJECT_TYPE,EPOCH,MEAN_MOTION,ECCENTRICITY,INCLINATION,RA_OF_ASC_NODE,ARG_OF_PERICENTER,MEAN_ANOMALY,BSTAR,MEAN_MOTION_DOT,MEAN_MOTION_DDOT,TLE_LINE0,TLE_LINE1,TLE_LINE2,SEMIMAJOR_AXIS,PERIOD,APOGEE,PERIGEE,DECAYED
55932.0,STARLINK-5848,PAYLOAD,2024-07-01 14:24:38,14.98324386,0.0002956,69.9997,17.6482,267.024,93.0581,0.0002353,2.715e-05,0.0,0 STARLINK-5848,1 55932U 23037U   24183.60044137  .00002715  00000-0  23530-3 0  9993,2 55932  69.9997  17.6482 0002956 267.0240  93.0581 14.98324386 72199,6950.21,96.107,574.13,570.021,0.0
55932.0,STARLINK-5848,PAYLOAD,2024-07-01 20:49:09,14.9833369,0.0002947,69.9998,16.9748,267.5081,92.5741,0.00024841,2.872e-05,0.0,0 STARLINK-5848,1 55932U 23037U   24183.86747554  .00002872  00000-0  24841-3 0  9994,2 55932  69.9998  16.9748 0002947 267.5081  92.5741 14.98333690 72577,6950.181,96.107,574.095,569.998,0.0
55932.0,STARLINK-5848,PAYLOAD,2024-07-01 22:25:17,14.98336856,0.0002766,70.0003,16.8063,266.2951,93.7892,0.00029579,3.439e-05,0.0,0 STARLINK-5848,1 55932U 23037U   24183.93423213  .00003439  00000-0  29579-3 0  9998,2 55932  70.0003  16.8063 0002766 266.2951  93.7892 14.98336856 72248,6950.172,96.107,573.959,570.114,0.0
55932.0,STARLINK-5848,PAYLOAD,2024-07-02 12:50:27,14.9836312,0.000318,69.9995,15.2923,267.7188,92.3607,0.00031422,3.661e-05,0.0,0 STARLINK-5848,1 55932U 23037U   24184.53504555  .00003661  00000-0  31422-3 0  9991,2 55932  69.9995  15.2923 0003180 267.7188  92.3607 14.98363120 72672,6950.09,96.105,574.166,569.745,0.0
55932.0,STARLINK-5848,PAYLOAD,2024-07-02 14:26:35,14.9836389,0.000316,69.9999,15.1234,267.2188,92.8609,0.00032175,3.751e-05,0.0,0 STARLINK-5848,1 55932U 23037U   24184.60180333  .00003751  00000-0  32175-3 0  9999,2 55932  69.9999  15.1234 0003160 267.2188  92.8609 14.98363890 72348,6950.088,96.105,574.149,569.757,0.0
55932.0,STARLINK-5848,PAYLOAD,2024-07-02 20:51:10,14.9832643,0.000318,70.0,14.4501,270.3328,89.7466,-0.00013707,-1.728e-05,0.0,0 STARLINK-5848,1 55932U 23037U   24184.86887696 -.00001728  00000-0 -13707-3 0  9997,2 55932  70.0000  14.4501 0003180 270.3328  89.7466 14.98326430 72723,6950.204,96.107,574.279,569.859,0.0
55932.0,STARLINK-5848,PAYLOAD,2024-07-02 22:27:19,14.98326282,0.0003213,69.9999,14.2814,270.6781,89.4009,-0.00014168,-1.783e-05,0.0,0 STARLINK-5848,1 55932U 23037U   24184.93563703 -.00001783  00000-0 -14168-3 0  9998,2 55932  69.9999  14.2814 0003213 270.6781  89.4009 14.98326282 72393,6950.204,96.107,574.302,569.836,0.0
55932.0,STARLINK-5848,PAYLOAD,2024-07-03 20:53:12,14.98324926,0.000309,70.0003,11.9244,270.1007,89.9797,-0.00021224,-2.624e-05,0.0,0 STARLINK-5848,1 55932U 23037U   24185.87028115 -.00002624  00000-0 -21224-3 0  9991,2 55932  70.0003  11.9244 0003090 270.1007  89.9797 14.98324926 72877,6950.209,96.107,574.221,569.926,0.0
55932.0,STARLINK-5848,PAYLOAD,2024-07-04 12:54:31,14.98341531,0.0002953,70.0003,10.2412,270.9958,89.0862,-0.00025708,-3.16e-05,0.0,0 STARLINK-5848,1 55932U 23037U   24186.53787012 -.00003160  00000-0 -25708-3 0  9990,2 55932  70.0003  10.2412 0002953 270.9958  89.0862 14.98341531 72972,6950.157,96.106,574.075,569.97,0.0
55932.0,STARLINK-5848,PAYLOAD,2024-07-04 14:30:39,14.98341264,0.0003434,70.0003,10.0729,271.6694,88.4072,-0.00024557,-3.023e-05,0.0,0 STARLINK-5848,1 55932U 23037U   24186.60462917 -.00003023  00000-0 -24557-3 0  9991,2 55932  70.0003  10.0729 0003434 271.6694  88.4072 14.98341264 72644,6950.158,96.106,574.41,569.636,0.0
55932.0,STARLINK-5848,PAYLOAD,2024-07-04 22:31:20,14.98336077,0.0003008,70.0004,9.2313,272.4538,87.6276,-6.904e-05,-9.17e-06,0.0,0 STARLINK-5848,1 55932U 23037U   24186.93842729 -.00000917  00000-0 -69040-4 0  9996,2 55932  70.0004   9.2313 0003008 272.4538  87.6276 14.98336077 72695,6950.174,96.107,574.13,569.948,0.0
55932.0,STARLINK-5848,PAYLOAD,2024-07-05 04:55:52,14.98322274,0.0003299,70.0004,8.558,271.751,88.3271,0.00013438,1.51e-05,0.0,0 STARLINK-5848,1 55932U 23037U   24187.20547196  .00001510  00000-0  13438-3 0  9994,2 55932  70.0004   8.5580 0003299 271.7510  88.3271 14.98322274 73077,6950.217,96.107,574.375,569.789,0.0
55932.0,STARLINK-5848,PAYLOAD,2024-07-05 14:32:41,14.98321297,0.0003306,70.0004,7.5483,270.3409,89.7371,0.0001236,1.382e-05,0.0,0 STARLINK-5848,1 55932U 23037U   24187.60603536  .00001382  00000-0  12360-3 0  9999,2 55932  70.0004   7.5483 0003306 270.3409  89.7371 14.98321297 72797,6950.22,96.108,574.383,569.787,0.0
55932.0,STARLINK-5848,PAYLOAD,2024-07-05 22:33:21,14.98325732,0.0003223,70.0006,6.7071,269.0456,91.0334,0.00016268,1.848e-05,0.0,0 STARLINK-5848,1 55932U 23037U   24187.93983280  .00001848  00000-0  16268-3 0  9990,2 55932  70.0006   6.7071 0003223 269.0456  91.0334 14.98325732 72847,6950.206,96.107,574.311,569.831,0.0
55932.0,STARLINK-5848,PAYLOAD,2024-07-06 04:57:54,14.98324881,0.000321,70.0006,6.0338,268.8762,91.203,9.141e-05,9.98e-06,0.0,0 STARLINK-5848,1 55932U 23037U   24188.20687581  .00000998  00000-0  91410-4 0  9994,2 55932  70.0006   6.0338 0003210 268.8762  91.2030 14.98324881 73221,6950.209,96.107,574.305,569.843,0.0
55932.0,STARLINK-5848,PAYLOAD,2024-07-06 14:34:42,14.98328458,0.0003154,70.0008,5.0242,266.5785,93.5013,-1.0776e-05,-2.22e-06,0.0,0 STARLINK-5848,1 55932U 23037U   24188.60743677 -.00000222  00000-0 -10776-4 0  9995,2 55932  70.0008   5.0242 0003154 266.5785  93.5013 14.98328458 72941,6950.198,96.107,574.255,569.871,0.0
55932.0,STARLINK-5848,PAYLOAD,2024-07-06 20:59:14,14.98329125,0.0003152,70.0009,4.3508,267.7392,92.3406,-3.6821e-06,-1.37e-06,0.0,0 STARLINK-5848,1 55932U 23037U   24188.87447641 -.00000137  00000-0 -36821-5 0  9991,2 55932  70.0009   4.3508 0003152 267.7392  92.3406 14.98329125 72983,6950.196,96.107,574.251,569.87,0.0
55932.0,STARLINK-5848,PAYLOAD,2024-07-07 04:59:55,14.98329762,0.000316,70.0009,3.5091,268.1455,91.9342,-2.5762e-06,-1.24e-06,0.0,0 STARLINK-5848,1 55932U 23037U   24189.20827590 -.00000124  00000-0 -25762-5 0  9992,2 55932  70.0009   3.5091 0003160 268.1455  91.9342 14.98329762 73370,6950.194,96.107,574.255,569.862,0.0
55932.0,STARLINK-5848,PAYLOAD,2024-07-07 13:00:35,14.98330028,0.0003151,70.0009,2.6676,267.8044,92.2754,3.0126e-06,-5.7e-07,0.0,0 STARLINK-5848,1 55932U 23037U   24189.54207558 -.00000057  00000-0  30126-5 0  9999,2 55932  70.0009   2.6676 0003151 267.8044  92.2754 14.98330028 73085,6950.193,96.107,574.248,569.868,0.0
55932.0,STARLINK-5848,PAYLOAD,2024-07-08 13:02:36,14.98327561,0.0003189,70.0009,0.1424,267.4349,92.6445,1.488e-05,8.5e-07,0.0,0 STARLINK-5848,1 55932U 23037U   24190.54347632  .00000085  00000-0  14880-4 0  9997,2 55932  70.0009   0.1424 0003189 267.4349  92.6445 14.98327561 73577,6950.2,96.107,574.282,569.849,0.0
55932.0,STARLINK-5848,PAYLOAD,2024-07-08 14:38:44,14.98327534,0.0003192,70.0009,359.9741,267.4528,92.6265,1.3973e-05,7.4e-07,0.0,0 STARLINK-5848,1 55932U 23037U   24190.61023643  .00000074  00000-0  13973-4 0  9998,2 55932  70.0009 359.9741 0003192 267.4528  92.6265 14.98327534 73241,6950.201,96.107,574.284,569.847,0.0
55932.0,STARLINK-5848,PAYLOAD,2024-07-08 21:03:16,14.98331241,0.0003274,70.0007,359.3005,269.2341,90.8443,3.0384e-05,2.7e-06,0.0,0 STARLINK-5848,1 55932U 23037U   24190.87727380  .00000270  00000-0  30384-4 0  9998,2 55932  70.0007 359.3005 0003274 269.2341  90.8443 14.98331241 73282,6950.189,96.107,574.33,569.779,0.0
55932.0,STARLINK-5848,PAYLOAD,2024-07-09 13:04:37,14.98330539,0.0003213,70.0007,357.616,269.1247,90.9544,2.9232e-05,2.56e-06,0.0,0 STARLINK-5848,1 55932U 23037U   24191.54487394  .00000256  00000-0  29232-4 0  9995,2 55932  70.0007 357.6160 0003213 269.1247  90.9544 14.98330539 73723,6950.191,96.107,574.289,569.823,0.0
55932.0,STARLINK-5848,PAYLOAD,2024-07-09 14:40:45,14.98330537,0.0003216,70.0007,357.4477,269.1152,90.9639,2.8855e-05,2.51e-06,0.0,0 STARLINK-5848,1 55932U 23037U   24191.61163391  .00000251  00000-0  28855-4 0  9996,2 55932  70.0007 357.4477 0003216 269.1152  90.9639 14.98330537 73396,6950.191,96.107,574.291,569.821,0.0
55932.0,STARLINK-5848,PAYLOAD,2024-07-09 21:05:17,14.98333168,0.0003226,70.0008,356.7745,269.235,90.8439,4.3324e-05,4.24e-06,0.0,0 STARLINK-5848,1 55932U 23037U   24191.87867161  .00000424  00000-0  43324-4 0  9990,2 55932  70.0008 356.7745 0003226 269.2350  90.8439 14.98333168 73434,6950.183,96.107,574.29,569.806,0.0
55932.0,STARLINK-5848,PAYLOAD,2024-07-10 11:30:30,14.98326552,0.0003188,70.0008,355.2596,269.2129,90.8664,-5.2194e-06,-1.55e-06,0.0,0 STARLINK-5848,1 55932U 23037U   24192.47951692 -.00000155  00000-0 -52194-5 0  9999,2 55932  70.0008 355.2596 0003188 269.2129  90.8664 14.98326552 73522,6950.204,96.107,574.284,569.853,0.0
55932.0,STARLINK-5848,PAYLOAD,2024-07-10 21:07:18,14.9832969,0.0003199,70.0009,354.2496,269.5197,90.5596,9.1727e-06,1.6e-07,0.0,0 STARLINK-5848,1 55932U 23037U   24192.88007489  .00000016  00000-0  91727-5 0  9999,2 55932  70.0009 354.2496 0003199 269.5197  90.5596 14.98329690 73584,6950.194,96.107,574.282,569.835,0.0
55932.0,STARLINK-5848,PAYLOAD,2024-07-11 14:44:47,14.983324,0.0003153,70.0012,352.3986,271.6892,88.3906,8.583e-06,9e-08,0.0,0 STARLINK-5848,1 55932U 23037U   24193.61443311  .00000009  00000-0  85830-5 0  9999,2 55932  70.0012 352.3986 0003153 271.6892  88.3906 14.98332400 73692,6950.185,96.107,574.242,569.859,0.0
55932.0,STARLINK-5848,PAYLOAD,2024-07-12 03:33:51,14.98332327,0.0003081,70.0014,351.0526,269.8544,90.2262,2.8336e-05,2.45e-06,0.0,0 STARLINK-5848,1 55932U 23037U   24194.14851183  .00000245  00000-0  28336-4 0  9997,2 55932  70.0014 351.0526 0003081 269.8544  90.2262 14.98332327 74116,6950.186,96.107,574.192,569.909,0.0
55932.0,STARLINK-5848,PAYLOAD,2024-07-12 14:46:48,14.98329023,0.0003104,70.0013,349.8745,269.2146,90.8657,1.5952e-05,9.7e-07,0.0,0 STARLINK-5848,1 55932U 23037U   24194.61583408  .00000097  00000-0  15952-4 0  9996,2 55932  70.0013 349.8745 0003104 269.2146  90.8657 14.98329023 73843,6950.196,96.107,574.218,569.904,0.0
